[
  {"line":"AEL","sta":"AWE","name_en":"AsiaWorld-Expo","name_zh":"博覽館","lat":22.321499,"lon":113.941937},
  {"line":"AEL","sta":"AIR","name_en":"Airport","name_zh":"機場","lat":22.315833,"lon":113.936500},
  {"line":"AEL","sta":"TSY","name_en":"Tsing Yi","name_zh":"青衣","lat":22.358333,"lon":114.103833},
  {"line":"AEL","sta":"KOW","name_en":"Kowloon","name_zh":"九龍","lat":22.304944,"lon":114.161556},
  {"line":"AEL","sta":"HOK","name_en":"Hong Kong","name_zh":"香港","lat":22.285139,"lon":114.158194},
  {"line":"TCL","sta":"TUC","name_en":"Tung Chung","name_zh":"東涌","lat":22.289111,"lon":113.941000},
  {"line":"TCL","sta":"SUN","name_en":"Sunny Bay","name_zh":"欣澳","lat":22.331611,"lon":114.028500},
  {"line":"TCL","sta":"LAK","name_en":"Lai King","name_zh":"荔景","lat":22.348333,"lon":114.126111},
  {"line":"TCL","sta":"NAC","name_en":"Nam Cheong","name_zh":"南昌","lat":22.327111,"lon":114.153389},
  {"line":"TCL","sta":"OLY","name_en":"Olympic","name_zh":"奧運","lat":22.318000,"lon":114.160111},
  {"line":"TCL","sta":"KOW","name_en":"Kowloon","name_zh":"九龍","lat":22.304944,"lon":114.161556},
  {"line":"TCL","sta":"HOK","name_en":"Hong Kong","name_zh":"香港","lat":22.285139,"lon":114.158194},
  {"line":"TML","sta":"WKS","name_en":"Wu Kai Sha","name_zh":"烏溪沙","lat":22.429167,"lon":114.243611},
  {"line":"TML","sta":"MOS","name_en":"Ma On Shan","name_zh":"馬鞍山","lat":22.424722,"lon":114.231667},
  {"line":"TML","sta":"HEO","name_en":"Heng On","name_zh":"恆安","lat":22.417222,"lon":114.225833},
  {"line":"TML","sta":"TAI","name_en":"Tai Shui Hang","name_zh":"大水坑","lat":22.408333,"lon":114.222222},
  {"line":"TML","sta":"SHM","name_en":"Shek Mun","name_zh":"石門","lat":22.387778,"lon":114.208611},
  {"line":"TML","sta":"CIH","name_en":"City One","name_zh":"第一城","lat":22.382778,"lon":114.203889},
  {"line":"TML","sta":"STH","name_en":"Sha Tin Wai","name_zh":"沙田圍","lat":22.377778,"lon":114.195278},
  {"line":"TML","sta":"CKT","name_en":"Che Kung Temple","name_zh":"車公廟","lat":22.374722,"lon":114.186111},
  {"line":"TML","sta":"TAW","name_en":"Tai Wai","name_zh":"大圍","lat":22.373056,"lon":114.178611},
  {"line":"TML","sta":"HIK","name_en":"Hin Keng","name_zh":"顯徑","lat":22.362778,"lon":114.172222},
  {"line":"TML","sta":"DIH","name_en":"Diamond Hill","name_zh":"鑽石山","lat":22.339722,"lon":114.201667},
  {"line":"TML","sta":"KAT","name_en":"Kai Tak","name_zh":"啟德","lat":22.330556,"lon":114.197778},
  {"line":"TML","sta":"SUW","name_en":"Sung Wong Toi","name_zh":"宋皇臺","lat":22.325556,"lon":114.192222},
  {"line":"TML","sta":"TKW","name_en":"To Kwa Wan","name_zh":"土瓜灣","lat":22.319444,"lon":114.191667},
  {"line":"TML","sta":"HOM","name_en":"Ho Man Tin","name_zh":"何文田","lat":22.309444,"lon":114.182778},
  {"line":"TML","sta":"HUH","name_en":"Hung Hom","name_zh":"紅磡","lat":22.305833,"lon":114.179167},
  {"line":"EAL","sta":"ADM","name_en":"Admiralty","name_zh":"金鐘","lat":22.278889,"lon":114.164722},
  {"line":"EAL","sta":"EXC","name_en":"Exhibition Centre","name_zh":"會展","lat":22.281111,"lon":114.173889},
  {"line":"EAL","sta":"HUH","name_en":"Hung Hom","name_zh":"紅磡","lat":22.305833,"lon":114.179167},
  {"line":"EAL","sta":"MKK","name_en":"Mong Kok East","name_zh":"旺角東","lat":22.319722,"lon":114.172222},
  {"line":"EAL","sta":"KOT","name_en":"Kowloon Tong","name_zh":"九龍塘","lat":22.336667,"lon":114.176389},
  {"line":"EAL","sta":"TAI","name_en":"Tai Po Market","name_zh":"大埔墟","lat":22.444722,"lon":114.164167},
  {"line":"EAL","sta":"UNI","name_en":"University","name_zh":"大學","lat":22.413333,"lon":114.210278},
  {"line":"EAL","sta":"TAP","name_en":"Tai Po","name_zh":"大埔","lat":22.455833,"lon":114.159444},
  {"line":"EAL","sta":"TWO","name_en":"Tai Wo","name_zh":"太和","lat":22.451667,"lon":114.161389},
  {"line":"EAL","sta":"FAN","name_en":"Fanling","name_zh":"粉嶺","lat":22.492222,"lon":114.138611},
  {"line":"EAL","sta":"SHS","name_en":"Sheung Shui","name_zh":"上水","lat":22.501389,"lon":114.127778},
  {"line":"EAL","sta":"LMC","name_en":"Lo Wu","name_zh":"羅湖","lat":22.528611,"lon":114.113333},
  {"line":"EAL","sta":"LOW","name_en":"Lok Ma Chau","name_zh":"落馬洲","lat":22.514722,"lon":114.065556},
  {"line":"TWL","sta":"TSW","name_en":"Tsuen Wan","name_zh":"荃灣","lat":22.373611,"lon":114.117778},
  {"line":"TWL","sta":"TWH","name_en":"Tsuen Wan West","name_zh":"荃灣西","lat":22.368333,"lon":114.110278},
  {"line":"TWLah","sta":"MEF","name_en":"Mei Foo","name_zh":"美孚","lat":22.337778,"lon":114.141111},
  {"line":"TWL","sta":"LAK","name_en":"Lai King","name_zh":"荔景","lat":22.348333,"lon":114.126111},
  {"line":"TWL","sta":"KWF","name_en":"Kwai Fong","name_zh":"葵芳","lat":22.357222,"lon":114.128056},
  {"line":"TWL","sta":"KWH","name_en":"Kwai Hing","name_zh":"葵興","lat":22.363056,"lon":114.130833},
  {"line":"TWL","sta":"TAW","name_en":"Tai Wo Hau","name_zh":"大窩口","lat":22.370833,"lon":114.135278},
  {"line":"TWL","sta":"KWT","name_en":"Kwun Tong","name_zh":"觀塘","lat":22.311111,"lon":114.226389},
  {"line":"TWL","sta":"LAT","name_en":"Lam Tin","name_zh":"藍田","lat":22.306667,"lon":114.233056},
  {"line":"TWL","sta":"YAT","name_en":"Yau Tong","name_zh":"油塘","lat":22.297778,"lon":114.237222},
  {"line":"TWL","sta":"TIK","name_en":"Tiu Keng Leng","name_zh":"調景嶺","lat":22.304444,"lon":114.252778},
  {"line":"TWL","sta":"CEN","name_en":"Central","name_zh":"中環","lat":22.281667,"lon":114.158333},
  {"line":"TWL","sta":"ADM","name_en":"Admiralty","name_zh":"金鐘","lat":22.278889,"lon":114.164722},
  {"line":"ISL","sta":"KET","name_en":"Kennedy Town","name_zh":"堅尼地城","lat":22.281111,"lon":114.128333},
  {"line":"ISL","sta":"HKU","name_en":"HKU","name_zh":"香港大學","lat":22.284167,"lon":114.135278},
  {"line":"ISL","sta":"SAU","name_en":"Sai Ying Pun","name_zh":"西營盤","lat":22.285833,"lon":114.142222},
  {"line":"ISL","sta":"SHW","name_en":"Sheung Wan","name_zh":"上環","lat":22.286389,"lon":114.151667},
  {"line":"ISL","sta":"CEN","name_en":"Central","name_zh":"中環","lat":22.281667,"lon":114.158333},
  {"line":"SIL","sta":"OCP","name_en":"Ocean Park","name_zh":"海洋公園","lat":22.248889,"lon":114.174722},
  {"line":"SIL","sta":"WCH","name_en":"Wong Chuk Hang","name_zh":"黃竹坑","lat":22.250000,"lon":114.168056},
  {"line":"SIL","sta":"LET","name_en":"Lei Tung","name_zh":"利東","lat":22.242222,"lon":114.156667},
  {"line":"SIL","sta":"SOH","name_en":"South Horizons","name_zh":"海怡半島","lat":22.243056,"lon":114.148056},
  {"line":"SIL","sta":"ADM","name_en":"Admiralty","name_zh":"金鐘","lat":22.278889,"lon":114.164722},
  {"line":"KTL","sta":"WTS","name_en":"Whampoa","name_zh":"黃埔","lat":22.304833,"lon":114.189444},
  {"line":"KTL","sta":"HOM","name_en":"Ho Man Tin","name_zh":"何文田","lat":22.309444,"lon":114.182778},
  {"line":"KTL","sta":"YMT","name_en":"Yau Ma Tei","name_zh":"油麻地","lat":22.313056,"lon":114.170556},
  {"line":"KTL","sta":"MOK","name_en":"Mong Kok","name_zh":"旺角","lat":22.319167,"lon":114.169444},
  {"line":"KTL","sta":"PRI","name_en":"Prince Edward","name_zh":"太子","lat":22.324722,"lon":114.168056},
  {"line":"KTL","sta":"SKM","name_en":"Shek Kip Mei","name_zh":"石硤尾","lat":22.331667,"lon":114.168889},
  {"line":"KTL","sta":"KOT","name_en":"Kowloon Tong","name_zh":"九龍塘","lat":22.336667,"lon":114.176389},
  {"line":"KTL","sta":"LOF","name_en":"Lok Fu","name_zh":"樂富","lat":22.338056,"lon":114.187222},
  {"line":"KTL","sta":"WTS","name_en":"Wong Tai Sin","name_zh":"黃大仙","lat":22.341667,"lon":114.193611},
  {"line":"KTL","sta":"DIH","name_en":"Diamond Hill","name_zh":"鑽石山","lat":22.339722,"lon":114.201667},
  {"line":"KTL","sta":"CHH","name_en":"Choi Hung","name_zh":"彩虹","lat":22.334722,"lon":114.208889},
  {"line":"KTL","sta":"KOB","name_en":"Kowloon Bay","name_zh":"九龍灣","lat":22.323333,"lon":114.213889},
  {"line":"KTL","sta":"NTK","name_en":"Ngau Tau Kok","name_zh":"牛頭角","lat":22.315556,"lon":114.219167},
  {"line":"KTL","sta":"KWT","name_en":"Kwun Tong","name_zh":"觀塘","lat":22.311111,"lon":114.226389},
  {"line":"TKL","sta":"POA","name_en":"Po Lam","name_zh":"寶琳","lat":22.322222,"lon":114.258056},
  {"line":"TKL","sta":"HAH","name_en":"Hang Hau","name_zh":"坑口","lat":22.315833,"lon":114.264444},
  {"line":"TKL","sta":"LOP","name_en":"LOHAS Park","name_zh":"康城","lat":22.296667,"lon":114.269167},
  {"line":"TKL","sta":"TIK","name_en":"Tiu Keng Leng","name_zh":"調景嶺","lat":22.304444,"lon":114.252778},
  {"line":"TKL","sta":"YAT","name_en":"Yau Tong","name_zh":"油塘","lat":22.297778,"lon":114.237222},
  {"line":"TKL","sta":"QUB","name_en":"Quarry Bay","name_zh":"鰂魚涌","lat":22.287778,"lon":114.209722},
  {"line":"TKL","sta":"NOH","name_en":"North Point","name_zh":"北角","lat":22.291389,"lon":114.200556},
  {"line":"DRL","sta":"DIS","name_en":"Disneyland Resort","name_zh":"迪士尼","lat":22.315556,"lon":114.044444},
  {"line":"DRL","sta":"SUN","name_en":"Sunny Bay","name_zh":"欣澳","lat":22.331611,"lon":114.028500}
]